NORAD_CAT_ID,OBJECT_NAME,OBJECT_TYPE,EPOCH,MEAN_MOTION,ECCENTRICITY,INCLINATION,RA_OF_ASC_NODE,ARG_OF_PERICENTER,MEAN_ANOMALY,BSTAR,MEAN_MOTION_DOT,MEAN_MOTION_DDOT,TLE_LINE0,TLE_LINE1,TLE_LINE2,SEMIMAJOR_AXIS,PERIOD,APOGEE,PERIGEE,DECAYED
54081.0,STARLINK-5165,PAYLOAD,2024-08-05 21:20:15,15.08850277,0.0001337,53.2154,61.3907,94.7464,265.3681,0.0015768,0.00024903,0.0,0 STARLINK-5165,1 54081U 22136AG  24218.88907188  .00024903  00000-0  15768-2 0  9995,2 54081  53.2154  61.3907 0001337  94.7464 265.3681 15.08850277 99781,6917.849,95.437,540.639,538.789,0.0
54081.0,STARLINK-5165,PAYLOAD,2024-08-06 13:14:07,15.08845125,0.0001494,53.2158,58.4158,96.1055,264.0107,0.0012961,0.00020402,0.0,0 STARLINK-5165,1 54081U 22136AG  24219.55147774  .00020402  00000-0  12961-2 0  9999,2 54081  53.2158  58.4158 0001494  96.1055 264.0107 15.08845125 99882,6917.865,95.437,540.763,538.696,0.0
54081.0,STARLINK-5165,PAYLOAD,2024-08-06 19:35:40,15.08840271,0.0001702,53.2159,57.2254,92.9925,267.1262,0.00094482,0.00014781,0.0,0 STARLINK-5165,1 54081U 22136AG  24219.81643923  .00014781  00000-0  94482-3 0  9997,2 54081  53.2159  57.2254 0001702  92.9925 267.1262 15.08840271 99927,6917.88,95.438,540.922,538.567,0.0
54081.0,STARLINK-5165,PAYLOAD,2024-08-07 13:04:54,15.08849893,0.0001274,53.2153,53.9572,74.6575,285.4558,0.00087708,0.00013702,0.0,0 STARLINK-5165,1 54081U 22136AG  24220.54507953  .00013702  00000-0  87708-3 0  9996,2 54081  53.2153  53.9572 0001274  74.6575 285.4558 15.08849893100034,6917.85,95.437,540.596,538.834,0.0
54081.0,STARLINK-5165,PAYLOAD,2024-08-07 19:26:27,15.08859135,0.0001299,53.2164,52.7673,78.3406,281.7732,0.00087159,0.00013618,0.0,0 STARLINK-5165,1 54081U 22136AG  24220.81003600  .00013618  00000-0  87159-3 0  9992,2 54081  53.2164  52.7673 0001299  78.3406 281.7732 15.08859135 99597,6917.822,95.436,540.586,538.788,0.0
54081.0,STARLINK-5165,PAYLOAD,2024-08-08 19:17:13,15.08860981,0.0001363,53.2174,48.3072,90.3344,269.7805,0.00078458,0.00012228,0.0,0 STARLINK-5165,1 54081U 22136AG  24221.80363248  .00012228  00000-0  78458-3 0  9997,2 54081  53.2174  48.3072 0001363  90.3344 269.7805 15.08860981100220,6917.816,95.436,540.624,538.738,0.0
54081.0,STARLINK-5165,PAYLOAD,2024-08-08 22:27:59,15.08866798,0.0001274,53.2168,47.7116,85.3196,274.7942,0.00098855,0.00015491,0.0,0 STARLINK-5165,1 54081U 22136AG  24221.93611036  .00015491  00000-0  98855-3 0  9990,2 54081  53.2168  47.7116 0001274  85.3196 274.7942 15.08866798 99761,6917.798,95.436,540.545,538.782,0.0
54081.0,STARLINK-5165,PAYLOAD,2024-08-09 12:46:28,15.08838087,0.000133,53.2166,45.0279,91.0755,269.039,0.00065055,0.0001008,0.0,0 STARLINK-5165,1 54081U 22136AG  24222.53227373  .00010080  00000-0  65055-3 0  9999,2 54081  53.2166  45.0279 0001330  91.0755 269.0390 15.08838087100338,6917.886,95.438,540.671,538.831,0.0
54081.0,STARLINK-5165,PAYLOAD,2024-08-09 19:08:00,15.08850263,0.000137,53.2178,43.8464,72.8147,287.2995,0.00054681,8.428e-05,0.0,0 STARLINK-5165,1 54081U 22136AG  24222.79723264  .00008428  00000-0  54681-3 0  9993,2 54081  53.2178  43.8464 0001370  72.8147 287.2995 15.08850263 99890,6917.849,95.437,540.662,538.766,0.0
54081.0,STARLINK-5165,PAYLOAD,2024-08-10 12:37:15,15.08840189,0.0001441,53.2177,40.5738,71.2665,288.8484,0.00078868,0.00012286,0.0,0 STARLINK-5165,1 54081U 22136AG  24223.52587789  .00012286  00000-0  78868-3 0  9995,2 54081  53.2177  40.5738 0001441  71.2665 288.8484 15.08840189100488,6917.88,95.438,540.742,538.748,0.0
54081.0,STARLINK-5165,PAYLOAD,2024-08-10 18:58:48,15.08854869,0.0001353,53.2179,39.3841,98.5526,261.562,0.0011755,0.00018477,0.0,0 STARLINK-5165,1 54081U 22136AG  24223.79083510  .00018477  00000-0  11755-2 0  9996,2 54081  53.2179  39.3841 0001353  98.5526 261.5620 15.08854869100043,6917.835,95.437,540.636,538.764,0.0
54081.0,STARLINK-5165,PAYLOAD,2024-08-11 12:28:03,15.08831626,0.0001506,53.2182,36.1158,91.8172,268.2993,0.00044519,6.803e-05,0.0,0 STARLINK-5165,1 54081U 22136AG  24224.51948158  .00006803  00000-0  44519-3 0  9990,2 54081  53.2182  36.1158 0001506  91.8172 268.2993 15.08831626100634,6917.906,95.438,540.813,538.729,0.0
54081.0,STARLINK-5165,PAYLOAD,2024-08-11 20:24:58,15.08856555,0.0002139,53.2186,34.631,96.2947,263.8289,0.0015024,0.00023715,0.0,0 STARLINK-5165,1 54081U 22136AG  24224.85068149  .00023715  00000-0  15024-2 0  9999,2 54081  53.2186  34.6310 0002139  96.2947 263.8289 15.08856555100685,6917.83,95.437,541.175,538.215,0.0
54081.0,STARLINK-5165,PAYLOAD,2024-08-12 04:21:55,15.08831423,0.0004452,53.2177,33.1408,86.2391,273.911,0.0013565,0.00021364,0.0,0 STARLINK-5165,1 54081U 22136AG  24225.18189269  .00021364  00000-0  13565-2 0  9999,2 54081  53.2177  33.1408 0004452  86.2391 273.9110 15.08831423100737,6917.907,95.438,542.851,536.692,0.0
54081.0,STARLINK-5165,PAYLOAD,2024-08-12 12:18:50,15.08861395,0.0001843,53.2176,31.6554,97.2764,262.8437,0.0018481,0.00029264,0.0,0 STARLINK-5165,1 54081U 22136AG  24225.51308021  .00029264  00000-0  18481-2 0  9994,2 54081  53.2176  31.6554 0001843  97.2764 262.8437 15.08861395100783,6917.815,95.436,540.955,538.405,0.0
54081.0,STARLINK-5165,PAYLOAD,2024-08-12 20:15:45,15.08909526,0.0002619,53.2179,30.1679,89.2453,270.8839,0.0035345,0.00056524,0.0,0 STARLINK-5165,1 54081U 22136AG  24225.84427107  .00056524  00000-0  35345-2 0  9994,2 54081  53.2179  30.1679 0002619  89.2453 270.8839 15.08909526100836,6917.668,95.433,541.345,537.721,0.0
54081.0,STARLINK-5165,PAYLOAD,2024-08-13 04:12:40,15.08849562,0.0002748,53.2176,28.6802,79.2248,280.9053,-0.00028275,-4.787e-05,0.0,0 STARLINK-5165,1 54081U 22136AG  24226.17547148 -.00004787  00000-0 -28275-3 0  9990,2 54081  53.2176  28.6802 0002748  79.2248 280.9053 15.08849562100885,6917.851,95.437,541.617,537.815,0.0
54081.0,STARLINK-5165,PAYLOAD,2024-08-13 10:34:13,15.08846198,0.0003194,53.2108,27.4908,79.3712,280.764,0.00052475,8.075e-05,0.0,0 STARLINK-5165,1 54081U 22136AG  24226.44043328  .00008075  00000-0  52475-3 0  9992,2 54081  53.2108  27.4908 0003194  79.3712 280.7640 15.08846198100441,6917.861,95.437,541.936,537.517,0.0
54081.0,STARLINK-5165,PAYLOAD,2024-08-13 18:31:09,15.0882919,0.0001341,53.2168,26.0045,74.2981,285.8159,0.0012096,0.00019009,0.0,0 STARLINK-5165,1 54081U 22136AG  24226.77163550  .00019009  00000-0  12096-2 0  9991,2 54081  53.2168  26.0045 0001341  74.2981 285.8159 15.08829190100970,6917.913,95.438,540.706,538.851,0.0
54081.0,STARLINK-5165,PAYLOAD,2024-08-14 04:03:28,15.0883019,0.0001522,53.2164,24.2214,71.6216,288.4941,0.0010037,0.00015718,0.0,0 STARLINK-5165,1 54081U 22136AG  24227.16908130  .00015718  00000-0  10037-2 0  9992,2 54081  53.2164  24.2214 0001522  71.6216 288.4941 15.08830190101035,6917.91,95.438,540.828,538.722,0.0
54081.0,STARLINK-5165,PAYLOAD,2024-08-14 16:46:33,15.08835507,0.0001576,53.2155,21.841,81.7379,278.3792,0.00063446,9.823e-05,0.0,0 STARLINK-5165,1 54081U 22136AG  24227.69900443  .00009823  00000-0  63446-3 0  9992,2 54081  53.2155  21.8410 0001576  81.7379 278.3792 15.08835507101115,6917.894,95.438,540.849,538.669,0.0
54081.0,STARLINK-5165,PAYLOAD,2024-08-15 03:54:15,15.08840243,0.0001453,53.2172,19.7588,82.9356,277.1801,0.00050539,7.765e-05,0.0,0 STARLINK-5165,1 54081U 22136AG  24228.16268507  .00007765  00000-0  50539-3 0  9995,2 54081  53.2172  19.7588 0001453  82.9356 277.1801 15.08840243100703,6917.88,95.438,540.75,538.739,0.0
54081.0,STARLINK-5165,PAYLOAD,2024-08-15 18:12:44,15.0884351,0.0001503,53.2177,17.0829,82.0978,278.0185,0.000356,5.383e-05,0.0,0 STARLINK-5165,1 54081U 22136AG  24228.75884522  .00005383  00000-0  35600-3 0  9997,2 54081  53.2177  17.0829 0001503  82.0978 278.0185 15.08843510101272,6917.87,95.437,540.774,538.695,0.0
54081.0,STARLINK-5165,PAYLOAD,2024-08-17 08:21:59,15.08837747,0.0001512,53.2176,9.9468,78.9245,281.1918,0.00011921,1.61e-05,0.0,0 STARLINK-5165,1 54081U 22136AG  24230.34861087  .00001610  00000-0  11921-3 0  9995,2 54081  53.2176   9.9468 0001512  78.9245 281.1918 15.08837747101512,6917.887,95.438,540.798,538.706,0.0
54081.0,STARLINK-5165,PAYLOAD,2024-08-18 12:58:56,15.08846933,0.000147,53.2183,4.5931,85.0296,275.0864,0.00025412,3.759e-05,0.0,0 STARLINK-5165,1 54081U 22136AG  24231.54092913  .00003759  00000-0  25412-3 0  9998,2 54081  53.2183   4.5931 0001470  85.0296 275.0864 15.08846933101692,6917.859,95.437,540.741,538.707,0.0
54081.0,STARLINK-5165,PAYLOAD,2024-08-18 14:34:19,15.08847177,0.0001519,53.2179,4.2961,82.3737,277.7428,0.00024497,3.614e-05,0.0,0 STARLINK-5165,1 54081U 22136AG  24231.60716851  .00003614  00000-0  24497-3 0  9991,2 54081  53.2179   4.2961 0001519  82.3737 277.7428 15.08847177101226,6917.858,95.437,540.774,538.673,0.0
54081.0,STARLINK-5165,PAYLOAD,2024-08-19 17:35:52,15.08843855,0.0001865,53.2175,359.2416,104.1324,255.9875,0.00013513,1.863e-05,0.0,0 STARLINK-5165,1 54081U 22136AG  24232.73324695  .00001863  00000-0  13513-3 0  9998,2 54081  53.2175 359.2416 0001865 104.1324 255.9875 15.08843855101873,6917.869,95.437,541.024,538.443,0.0
54081.0,STARLINK-5165,PAYLOAD,2024-08-20 14:15:53,15.08848404,0.0001643,53.2179,355.3759,88.1609,271.9571,3.2426e-05,2.28e-06,0.0,0 STARLINK-5165,1 54081U 22136AG  24233.59436489  .00000228  00000-0  32426-4 0  9997,2 54081  53.2179 355.3759 0001643  88.1609 271.9571 15.08848404101523,6917.855,95.437,540.856,538.583,0.0
54081.0,STARLINK-5165,PAYLOAD,2024-08-20 20:37:24,15.08858408,0.0001521,53.2178,354.182,90.3883,269.7283,0.00018,2.579e-05,0.0,0 STARLINK-5165,1 54081U 22136AG  24233.85931681  .00002579  00000-0  18000-3 0  9992,2 54081  53.2178 354.1820 0001521  90.3883 269.7283 15.08858408102040,6917.824,95.436,540.741,538.637,0.0
54081.0,STARLINK-5165,PAYLOAD,2024-08-21 12:31:17,15.088304,0.0001355,53.2156,351.2202,63.8125,296.3006,-8.1633e-06,-4.18e-06,0.0,0 STARLINK-5165,1 54081U 22136AG  24234.52173404 -.00000418  00000-0 -81633-5 0  9994,2 54081  53.2156 351.2202 0001355  63.8125 296.3006 15.08830400102149,6917.91,95.438,540.712,538.837,0.0
